SCD 1                   
1 22490U 93009B   26168.52087976  .00000327  00000+0  38486-4 0  9999
2 22490  24.9678 205.5170 0042067 141.2248 338.0371 14.46118916761163
SCD 2                   
1 25504U 98060A   26168.17956295  .00000355  00000+0  48260-4 0  9992
2 25504  24.9954  72.2040 0016945 122.8124  10.9716 14.45525886460328
SENTINEL-1A             
1 39634U 14016A   26168.98463772  .00000030  00000+0  16113-4 0  9994
2 39634  98.1772 176.5056 0001424  79.0182 281.1178 14.59198641650130
SENTINEL-2A             
1 40697U 15028A   26168.91399321 -.00000128  00000+0 -32206-4 0  9991
2 40697  98.5687 243.7552 0001102  89.7477 270.3833 14.30814629573835
SCATSAT 1               
1 41790U 16059H   26168.75430785  .00000853  00000+0  11890-3 0  9991
2 41790  98.1191 232.5263 0053404 245.6154 113.9478 14.79526505101670
SENTINEL-2B             
1 42063U 17013A   26168.97672326 -.00000070  00000+0 -10238-4 0  9998
2 42063  98.5695 243.7400 0001193  87.6805 272.4514 14.30816468484751
SAUDISAT 5B             
1 43833U 18102C   26168.96936191  .00004344  00000+0  15993-3 0  9994
2 43833  97.3172 233.6064 0011730 128.8888 231.3400 15.28311353415916
SENTINEL-2C             
1 60989U 24157A   26168.80191608  .00000090  00000+0  51065-4 0  9996
2 60989  98.5693 243.5752 0001014  82.1905 277.9393 14.30817989 93072
SENTINEL-1C             
1 62261U 24235A   26168.95327898  .00000109  00000+0  33129-4 0  9998
2 62261  98.1820 176.2525 0001364  89.2778 270.8578 14.58604804 81523
SENTINEL-1D             
1 66315U 25251A   26168.50986655  .00000115  00000+0  34095-4 0  9994
2 66315  98.1827 175.8651 0001384  90.1468 269.9891 14.59198770 32779
